[{"OBJECT_NAME":"ONEWEB-0342","OBJECT_ID":"2021-083Y","EPOCH":"2025-11-23T10:39:12.561696","MEAN_MOTION":13.20774093,"ECCENTRICITY":0.0001988,"INCLINATION":87.919,"RA_OF_ASC_NODE":315.4659,"ARG_OF_PERICENTER":86.7476,"MEAN_ANOMALY":273.3885,"EPHEMERIS_TYPE":0,"CLASSIFICATION_TYPE":"U","NORAD_CAT_ID":49208,"ELEMENT_SET_NO":999,"REV_AT_EPOCH":20962,"BSTAR":4.4884e-5,"MEAN_MOTION_DOT":3.1e-7,"MEAN_MOTION_DDOT":0},{"OBJECT_NAME":"ONEWEB-0343","OBJECT_ID":"2021-083Z","EPOCH":"2025-11-23T05:16:59.276064","MEAN_MOTION":13.18700661,"ECCENTRICITY":0.0002072,"INCLINATION":87.9204,"RA_OF_ASC_NODE":16.3636,"ARG_OF_PERICENTER":85.2615,"MEAN_ANOMALY":274.8753,"EPHEMERIS_TYPE":0,"CLASSIFICATION_TYPE":"U","NORAD_CAT_ID":49209,"ELEMENT_SET_NO":999,"REV_AT_EPOCH":20289,"BSTAR":0.00046955,"MEAN_MOTION_DOT":1.98e-6,"MEAN_MOTION_DDOT":0},{"OBJECT_NAME":"ONEWEB-0344","OBJECT_ID":"2021-083AA","EPOCH":"2025-11-23T01:25:37.072704","MEAN_MOTION":13.13469704,"ECCENTRICITY":0.0001593,"INCLINATION":87.8981,"RA_OF_ASC_NODE":1.2381,"ARG_OF_PERICENTER":83.346,"MEAN_ANOMALY":276.785,"EPHEMERIS_TYPE":0,"CLASSIFICATION_TYPE":"U","NORAD_CAT_ID":49210,"ELEMENT_SET_NO":999,"REV_AT_EPOCH":20383,"BSTAR":-0.00076781,"MEAN_MOTION_DOT":-2.68e-6,"MEAN_MOTION_DDOT":0},{"OBJECT_NAME":"ONEWEB-0345","OBJECT_ID":"2021-083AB","EPOCH":"2025-11-23T03:03:07.888896","MEAN_MOTION":13.13470132,"ECCENTRICITY":0.0001681,"INCLINATION":87.8993,"RA_OF_ASC_NODE":1.1827,"ARG_OF_PERICENTER":84.2369,"MEAN_ANOMALY":275.8952,"EPHEMERIS_TYPE":0,"CLASSIFICATION_TYPE":"U","NORAD_CAT_ID":49211,"ELEMENT_SET_NO":999,"REV_AT_EPOCH":20385,"BSTAR":-0.00072196,"MEAN_MOTION_DOT":-2.51e-6,"MEAN_MOTION_DDOT":0},{"OBJECT_NAME":"ONEWEB-0346","OBJECT_ID":"2021-083AC","EPOCH":"2025-11-23T05:12:15.701760","MEAN_MOTION":13.18685825,"ECCENTRICITY":0.0001541,"INCLINATION":87.9201,"RA_OF_ASC_NODE":16.3807,"ARG_OF_PERICENTER":119.3456,"MEAN_ANOMALY":240.783,"EPHEMERIS_TYPE":0,"CLASSIFICATION_TYPE":"U","NORAD_CAT_ID":49212,"ELEMENT_SET_NO":999,"REV_AT_EPOCH":20283,"BSTAR":0.00021402,"MEAN_MOTION_DOT":9.7e-7,"MEAN_MOTION_DDOT":0},{"OBJECT_NAME":"ONEWEB-0348","OBJECT_ID":"2021-083AD","EPOCH":"2025-11-23T10:25:34.518720","MEAN_MOTION":13.2077345,"ECCENTRICITY":0.0001302,"INCLINATION":87.9178,"RA_OF_ASC_NODE":315.4754,"ARG_OF_PERICENTER":78.2267,"MEAN_ANOMALY":281.9013,"EPHEMERIS_TYPE":0,"CLASSIFICATION_TYPE":"U","NORAD_CAT_ID":49213,"ELEMENT_SET_NO":999,"REV_AT_EPOCH":20965,"BSTAR":-1.3938e-5,"MEAN_MOTION_DOT":7.0e-8,"MEAN_MOTION_DDOT":0},{"OBJECT_NAME":"ONEWEB-0350","OBJECT_ID":"2021-083AE","EPOCH":"2025-11-23T03:16:31.821888","MEAN_MOTION":13.13469829,"ECCENTRICITY":0.0001594,"INCLINATION":87.8996,"RA_OF_ASC_NODE":1.1781,"ARG_OF_PERICENTER":87.3567,"MEAN_ANOMALY":272.7744,"EPHEMERIS_TYPE":0,"CLASSIFICATION_TYPE":"U","NORAD_CAT_ID":49214,"ELEMENT_SET_NO":999,"REV_AT_EPOCH":20388,"BSTAR":-0.00064071,"MEAN_MOTION_DOT":-2.21e-6,"MEAN_MOTION_DDOT":0},{"OBJECT_NAME":"ONEWEB-0351","OBJECT_ID":"2021-083AF","EPOCH":"2025-11-23T10:16:19.436736","MEAN_MOTION":13.20772381,"ECCENTRICITY":0.0002633,"INCLINATION":87.9191,"RA_OF_ASC_NODE":315.4712,"ARG_OF_PERICENTER":74.0938,"MEAN_ANOMALY":286.0485,"EPHEMERIS_TYPE":0,"CLASSIFICATION_TYPE":"U","NORAD_CAT_ID":49215,"ELEMENT_SET_NO":999,"REV_AT_EPOCH":20961,"BSTAR":-4.0739e-5,"MEAN_MOTION_DOT":-4.0e-8,"MEAN_MOTION_DDOT":0},{"OBJECT_NAME":"ONEWEB-0352","OBJECT_ID":"2021-083AG","EPOCH":"2025-11-23T02:48:30.433824","MEAN_MOTION":13.13469669,"ECCENTRICITY":0.0002199,"INCLINATION":87.8983,"RA_OF_ASC_NODE":1.2068,"ARG_OF_PERICENTER":89.6589,"MEAN_ANOMALY":270.4792,"EPHEMERIS_TYPE":0,"CLASSIFICATION_TYPE":"U","NORAD_CAT_ID":49216,"ELEMENT_SET_NO":999,"REV_AT_EPOCH":20397,"BSTAR":-0.00027368,"MEAN_MOTION_DOT":-8.7e-7,"MEAN_MOTION_DDOT":0},{"OBJECT_NAME":"ONEWEB-0354","OBJECT_ID":"2021-083AH","EPOCH":"2025-11-23T09:03:46.564128","MEAN_MOTION":13.20772951,"ECCENTRICITY":0.0001653,"INCLINATION":87.9188,"RA_OF_ASC_NODE":315.4809,"ARG_OF_PERICENTER":85.1167,"MEAN_ANOMALY":275.0155,"EPHEMERIS_TYPE":0,"CLASSIFICATION_TYPE":"U","NORAD_CAT_ID":49217,"ELEMENT_SET_NO":999,"REV_AT_EPOCH":20964,"BSTAR":0.0002569,"MEAN_MOTION_DOT":1.17e-6,"MEAN_MOTION_DDOT":0},{"OBJECT_NAME":"ONEWEB-0355","OBJECT_ID":"2021-083AJ","EPOCH":"2025-11-23T03:30:08.945568","MEAN_MOTION":13.13470271,"ECCENTRICITY":0.0001887,"INCLINATION":87.8988,"RA_OF_ASC_NODE":1.2133,"ARG_OF_PERICENTER":89.3566,"MEAN_ANOMALY":270.7779,"EPHEMERIS_TYPE":0,"CLASSIFICATION_TYPE":"U","NORAD_CAT_ID":49218,"ELEMENT_SET_NO":999,"REV_AT_EPOCH":20385,"BSTAR":-5.8078e-5,"MEAN_MOTION_DOT":-8.0e-8,"MEAN_MOTION_DDOT":0},{"OBJECT_NAME":"ONEWEB-0357","OBJECT_ID":"2021-083AK","EPOCH":"2025-11-23T08:59:14.444736","MEAN_MOTION":13.2077254,"ECCENTRICITY":0.0001948,"INCLINATION":87.9184,"RA_OF_ASC_NODE":315.478,"ARG_OF_PERICENTER":82.6984,"MEAN_ANOMALY":277.437,"EPHEMERIS_TYPE":0,"CLASSIFICATION_TYPE":"U","NORAD_CAT_ID":49219,"ELEMENT_SET_NO":999,"REV_AT_EPOCH":20964,"BSTAR":0.00027104,"MEAN_MOTION_DOT":1.23e-6,"MEAN_MOTION_DDOT":0},{"OBJECT_NAME":"ONEWEB-0332","OBJECT_ID":"2021-090A","EPOCH":"2025-11-23T09:30:27.290016","MEAN_MOTION":13.14501586,"ECCENTRICITY":0.0002086,"INCLINATION":87.8976,"RA_OF_ASC_NODE":330.7185,"ARG_OF_PERICENTER":93.0443,"MEAN_ANOMALY":267.0926,"EPHEMERIS_TYPE":0,"CLASSIFICATION_TYPE":"U","NORAD_CAT_ID":49279,"ELEMENT_SET_NO":999,"REV_AT_EPOCH":20054,"BSTAR":0.00073058,"MEAN_MOTION_DOT":2.84e-6,"MEAN_MOTION_DDOT":0},{"OBJECT_NAME":"ONEWEB-0347","OBJECT_ID":"2021-090B","EPOCH":"2025-11-23T10:34:42.085632","MEAN_MOTION":13.20771872,"ECCENTRICITY":0.0002095,"INCLINATION":87.9181,"RA_OF_ASC_NODE":315.4764,"ARG_OF_PERICENTER":95.2849,"MEAN_ANOMALY":264.8524,"EPHEMERIS_TYPE":0,"CLASSIFICATION_TYPE":"U","NORAD_CAT_ID":49280,"ELEMENT_SET_NO":999,"REV_AT_EPOCH":20388,"BSTAR":-1.8044e-5,"MEAN_MOTION_DOT":6.0e-8,"MEAN_MOTION_DDOT":0},{"OBJECT_NAME":"ONEWEB-0349","OBJECT_ID":"2021-090C","EPOCH":"2025-11-23T09:31:03.668736","MEAN_MOTION":13.20773175,"ECCENTRICITY":0.0001913,"INCLINATION":87.9177,"RA_OF_ASC_NODE":315.4844,"ARG_OF_PERICENTER":86.7099,"MEAN_ANOMALY":273.4253,"EPHEMERIS_TYPE":0,"CLASSIFICATION_TYPE":"U","NORAD_CAT_ID":49281,"ELEMENT_SET_NO":999,"REV_AT_EPOCH":20266,"BSTAR":8.0703e-5,"MEAN_MOTION_DOT":4.6e-7,"MEAN_MOTION_DDOT":0},{"OBJECT_NAME":"ONEWEB-0353","OBJECT_ID":"2021-090D","EPOCH":"2025-11-23T09:19:02.112960","MEAN_MOTION":13.14501767,"ECCENTRICITY":0.0002076,"INCLINATION":87.8982,"RA_OF_ASC_NODE":330.7039,"ARG_OF_PERICENTER":94.4063,"MEAN_ANOMALY":265.7304,"EPHEMERIS_TYPE":0,"CLASSIFICATION_TYPE":"U","NORAD_CAT_ID":49282,"ELEMENT_SET_NO":999,"REV_AT_EPOCH":20054,"BSTAR":0.00070295,"MEAN_MOTION_DOT":2.73e-6,"MEAN_MOTION_DDOT":0},{"OBJECT_NAME":"ONEWEB-0356","OBJECT_ID":"2021-090E","EPOCH":"2025-11-23T09:28:46.208064","MEAN_MOTION":13.20773021,"ECCENTRICITY":0.0001637,"INCLINATION":87.9181,"RA_OF_ASC_NODE":315.4757,"ARG_OF_PERICENTER":117.1468,"MEAN_ANOMALY":242.9832,"EPHEMERIS_TYPE":0,"CLASSIFICATION_TYPE":"U","NORAD_CAT_ID":49283,"ELEMENT_SET_NO":999,"REV_AT_EPOCH":20266,"BSTAR":0.00033979,"MEAN_MOTION_DOT":1.51e-6,"MEAN_MOTION_DDOT":0}]
