ONEWEB-0342             
1 49208U 21083Y   25327.44389539  .00000031  00000+0  44884-4 0  9996
2 49208  87.9190 315.4659 0001988  86.7476 273.3885 13.20774093209627
ONEWEB-0343             
1 49209U 21083Z   25327.22013051  .00000198  00000+0  46955-3 0  9990
2 49209  87.9204  16.3636 0002072  85.2615 274.8753 13.18700661202899
ONEWEB-0344             
1 49210U 21083AA  25327.05945686 -.00000268  00000+0 -76781-3 0  9991
2 49210  87.8981   1.2381 0001593  83.3460 276.7850 13.13469704203835
ONEWEB-0345             
1 49211U 21083AB  25327.12717464 -.00000251  00000+0 -72196-3 0  9999
2 49211  87.8993   1.1827 0001681  84.2369 275.8952 13.13470132203851
ONEWEB-0346             
1 49212U 21083AC  25327.21684840  .00000097  00000+0  21402-3 0  9991
2 49212  87.9201  16.3807 0001541 119.3456 240.7830 13.18685825202838
ONEWEB-0348             
1 49213U 21083AD  25327.43442730  .00000007  00000+0 -13938-4 0  9994
2 49213  87.9178 315.4754 0001302  78.2267 281.9013 13.20773450209656
ONEWEB-0350             
1 49214U 21083AE  25327.13647942 -.00000221  00000+0 -64071-3 0  9996
2 49214  87.8996   1.1781 0001594  87.3567 272.7744 13.13469829203882
ONEWEB-0351             
1 49215U 21083AF  25327.42800274 -.00000004  00000+0 -40739-4 0  9993
2 49215  87.9191 315.4712 0002633  74.0938 286.0485 13.20772381209611
ONEWEB-0352             
1 49216U 21083AG  25327.11701891 -.00000087  00000+0 -27368-3 0  9998
2 49216  87.8983   1.2068 0002199  89.6589 270.4792 13.13469669203970
ONEWEB-0354             
1 49217U 21083AH  25327.37762227  .00000117  00000+0  25690-3 0  9995
2 49217  87.9188 315.4809 0001653  85.1167 275.0155 13.20772951209642
ONEWEB-0355             
1 49218U 21083AJ  25327.14593687 -.00000008  00000+0 -58078-4 0  9991
2 49218  87.8988   1.2133 0001887  89.3566 270.7779 13.13470271203851
ONEWEB-0357             
1 49219U 21083AK  25327.37447274  .00000123  00000+0  27104-3 0  9998
2 49219  87.9184 315.4780 0001948  82.6984 277.4370 13.20772540209643
ONEWEB-0332             
1 49279U 21090A   25327.39614919  .00000284  00000+0  73058-3 0  9993
2 49279  87.8976 330.7185 0002086  93.0443 267.0926 13.14501586200541
ONEWEB-0347             
1 49280U 21090B   25327.44076488  .00000006  00000+0 -18044-4 0  9992
2 49280  87.9181 315.4764 0002095  95.2849 264.8524 13.20771872203882
ONEWEB-0349             
1 49281U 21090C   25327.39657024  .00000046  00000+0  80703-4 0  9992
2 49281  87.9177 315.4844 0001913  86.7099 273.4253 13.20773175202665
ONEWEB-0353             
1 49282U 21090D   25327.38821890  .00000273  00000+0  70295-3 0  9992
2 49282  87.8982 330.7039 0002076  94.4063 265.7304 13.14501767200548
ONEWEB-0356             
1 49283U 21090E   25327.39497926  .00000151  00000+0  33979-3 0  9996
2 49283  87.9181 315.4757 0001637 117.1468 242.9832 13.20773021202661
